YAOGAN-34 02            
1 52084U 22027A   22104.29104301 -.00013592  00000+0 -22444-1 0  9999
2 52084  63.3954 157.7461 0012655 278.5456 182.8305 13.46452538  3773
CZ-4C R/B               
1 52085U 22027B   22104.47384806 -.00000086  00000+0  10519-4 0  9996
2 52085  63.3971 154.8949 0103648  41.4460 319.4379 13.65314165  3859
SOYUZ-MS 21             
1 52086U 22028A   22104.48586959  .00008072  00000+0  14896-3 0  9995
2 52086  51.6459 292.0941 0005101  20.4065  25.9757 15.50056183335307
STARLINK-3537           
1 52088U 22029A   22104.91667824  .00184492  24815-4  41419-3 0  9994
2 52088  53.2159   8.8099 0005711 352.3268 198.6947 15.97351311  2896
STARLINK-3722           
1 52089U 22029B   22104.91667824 -.00713875  00000+0 -11661-1 0  9999
2 52089  53.2174  12.6563 0001118  80.2964   7.1114 15.54456350  3703
STARLINK-3712           
1 52090U 22029C   22104.91667824 -.00713339  00000+0 -11487-1 0  9992
2 52090  53.2173  12.6551 0001227  64.1060  41.8257 15.54840708  3707
STARLINK-3713           
1 52091U 22029D   22104.91667824 -.00713644  00000+0 -11602-1 0  9991
2 52091  53.2174  12.6558 0001104  88.6176   5.0034 15.54584441  3769
STARLINK-3716           
1 52092U 22029E   22104.91667824 -.00713465  00000+0 -11544-1 0  9998
2 52092  53.2174  12.6556 0001138  80.4883  19.3074 15.54712588  5455
STARLINK-3673           
1 52093U 22029F   22104.91667824 -.00712837  00000+0 -11373-1 0  9991
2 52093  53.2173  12.6514 0001254  63.6593  55.2517 15.55089346  3717
STARLINK-3714           
1 52094U 22029G   22104.91667824 -.00713177  00000+0 -11430-1 0  9994
2 52094  53.2173  12.6542 0001179  75.2909  36.7381 15.54968879  3703
STARLINK-3701           
1 52095U 22029H   22104.91667824 -.00712682  00000+0 -11263-1 0  9999
2 52095  53.2173  12.6496 0001169  87.5778  43.3391 15.55345771  3707
STARLINK-3717           
1 52096U 22029J   22104.91667824 -.00054585  00000+0 -38739-3 0  9990
2 52096  53.2173  11.4397 0001075 115.6581 235.0276 15.73178795  3719
STARLINK-3676           
1 52097U 22029K   22104.88142305  .01499224  13588-2  24036-2 0  9993
2 52097  53.2138   8.9607 0004069 318.2471  41.8307 16.03292621  5507
STARLINK-3665           
1 52098U 22029L   22104.91667824 -.00712759  00000+0 -11318-1 0  9998
2 52098  53.2173  12.6507 0001175  81.8995  43.0339 15.55217564  3705
STARLINK-3662           
1 52099U 22029M   22104.93843824  .01784465  22049-2  26072-2 0  9993
2 52099  53.2129   8.6015 0003615 336.9216  23.0981 16.05051444  5518
STARLINK-3702           
1 52100U 22029N   22104.91667824 -.00712537  00000+0 -11207-1 0  9993
2 52100  53.2173  12.6486 0001185  92.0926  44.7692 15.55473933  3708
STARLINK-3703           
1 52101U 22029P   22104.91667824 -.00712224  00000+0 -11100-1 0  9999
2 52101  53.2174  12.6435 0001213  99.7018  50.1858 15.55718902  3716
STARLINK-3709           
1 52102U 22029Q   22104.91667824 -.00033482  00000+0 -23505-3 0  9996
2 52102  53.2170  11.8540 0001097 116.6200  31.5800 15.73204578  3701
STARLINK-3705           
1 52103U 22029R   22104.91667824 -.00045764  00000+0 -32382-3 0  9996
2 52103  53.2172  11.8468 0001524 113.1305  38.4587 15.73170949  3719
STARLINK-3693           
1 52104U 22029S   22105.01823247  .02150438  35308-2  36025-2 0  9996
2 52104  53.2145   8.3976 0005476 297.5497  62.6947 16.03081668  5527
STARLINK-3706           
1 52105U 22029T   22104.91667824 -.00060785  00000+0 -43203-3 0  9992
2 52105  53.2172  11.8441 0001273 112.7437  39.9884 15.73188200  3764
STARLINK-3670           
1 52106U 22029U   22104.91667824 -.00712037  00000+0 -11044-1 0  9993
2 52106  53.2174  12.6424 0001217  95.7981  59.9219 15.55847048  3710
STARLINK-3658           
1 52107U 22029V   22104.91667824 -.00015052  00000+0 -10308-3 0  9991
2 52107  53.2172  11.8414 0001275 108.2782  45.6276 15.73186852  3761
STARLINK-3698           
1 52108U 22029W   22104.91667824  .00024560  00000+0  17906-3 0  9995
2 52108  53.2173  11.8458 0001016 121.6488  30.5019 15.73178307  3715
STARLINK-3687           
1 52110U 22029Y   22104.91667824 -.00033399  00000+0 -23452-3 0  9993
2 52110  53.2173  11.8431 0001483 113.7633  39.5659 15.73197218  3767
STARLINK-3708           
1 52111U 22029Z   22104.91667824 -.00101877  00000+0 -72888-3 0  9998
2 52111  53.2173  11.8367 0001203 114.5806  41.6061 15.73244888  3764
STARLINK-3734           
1 52112U 22029AA  22104.91667824 -.00141781  00000+0 -10219-2 0  9996
2 52112  53.2174  11.8407 0001442 120.6265  33.8023 15.73221983  3765
STARLINK-3736           
1 52113U 22029AB  22104.91667824 -.00037735  00000+0 -26602-3 0  9994
2 52113  53.2174  11.8343 0001046 109.9413  47.4137 15.73168330  3718
STARLINK-3737           
1 52114U 22029AC  22104.91667824 -.00128305  00000+0 -92118-3 0  9994
2 52114  53.2173  11.8381 0001250 115.4236  40.1466 15.73265232  3761
STARLINK-3685           
1 52115U 22029AD  22104.91667824 -.00117662  00000+0 -84450-3 0  9999
2 52115  53.2174  11.8316 0001175 115.6022  42.8837 15.73233441  3760
STARLINK-3735           
1 52116U 22029AE  22104.91667824 -.00044223  00000+0 -31276-3 0  9990
2 52116  53.2175  11.8358 0001249 111.8454  44.9060 15.73167938  3710
STARLINK-3738           
1 52117U 22029AF  22104.91667824 -.00070119  00000+0 -49871-3 0  9994
2 52117  53.2175  11.8295 0001239 115.2325  44.3737 15.73230293  3715
STARLINK-3743           
1 52118U 22029AG  22104.91667824  .00025733  00000+0  18734-3 0  9999
2 52118  53.2175  11.8335 0001110 119.1634  38.7166 15.73182489  3711
STARLINK-3558           
1 52119U 22029AH  22104.91667824 -.00076193  00000+0 -54314-3 0  9992
2 52119  53.2175  11.8268 0001197 116.0480  44.7510 15.73210883  3717
STARLINK-3534           
1 52120U 22029AJ  22104.91667824 -.00081677  00000+0 -58237-3 0  9995
2 52120  53.2175  11.8312 0001256 114.9625  44.0785 15.73233215  3714
STARLINK-3678           
1 52121U 22029AK  22104.91667824 -.00159717  00000+0 -11535-2 0  9996
2 52121  53.2175  11.8244 0001260 124.2466  37.6652 15.73236397  3761
STARLINK-3726           
1 52122U 22029AL  22104.91667824 -.00024709  00000+0 -17187-3 0  9999
2 52122  53.2176  11.8283 0001169 108.3184  52.0008 15.73238641  3719
STARLINK-3725           
1 52123U 22029AM  22104.91667824 -.00077017  00000+0 -54850-3 0  9998
2 52123  53.2175  11.8220 0001057 111.1703  51.8714 15.73237296  3766
STARLINK-3684           
1 52124U 22029AN  22104.91667824  .00023207  00000+0  16956-3 0  9994
2 52124  53.2176  11.8263 0001117 122.2147  39.1140 15.73165606  3764
STARLINK-3727           
1 52125U 22029AP  22104.91667824  .00020086  00000+0  14748-3 0  9994
2 52125  53.2175  11.8206 0001281 111.7706  51.8462 15.73153284  3719
STARLINK-3732           
1 52126U 22029AQ  22104.91667824 -.00032152  00000+0 -22549-3 0  9992
2 52126  53.2176  11.8236 0001457 112.7807  49.7082 15.73204661  3767
STARLINK-3715           
1 52127U 22029AR  22104.91667824 -.00083196  00000+0 -59318-3 0  9991
2 52127  53.2177  11.8181 0001303 116.8424  47.9104 15.73241165  3763
STARLINK-3719           
1 52128U 22029AS  22105.06045447  .03196995  16128-1  36626-2 0  9999
2 52128  53.2147   7.6604 0005547 274.9923 221.8146 16.11260795  5537
STARLINK-3661           
1 52129U 22029AT  22104.91667824 -.00084924  00000+0 -60710-3 0  9991
2 52129  53.2177  11.8159 0001337 106.0249  59.9034 15.73187970  3761
STARLINK-3710           
1 52130U 22029AU  22105.05933873  .02668989  82761-2  38330-2 0  9997
2 52130  53.2138   7.9295 0004411 298.4887  61.7175 16.06830900  5536
STARLINK-3711           
1 52131U 22029AV  22104.91667824 -.00075244  00000+0 -53595-3 0  9992
2 52131  53.2176  11.8145 0001152 117.4106  49.0396 15.73224341  3711
STARLINK-3718           
1 52132U 22029AW  22104.91667824 -.00004861  00000+0 -30341-4 0  9995
2 52132  53.2176  11.8176 0001098 113.8736  51.3562 15.73126122  3768
STARLINK-3707           
1 52133U 22029AX  22104.91667824 -.00137421  00000+0 -99018-3 0  9990
2 52133  53.2177  11.8118 0001366 111.7001  55.9270 15.73213881  3716
STARLINK-3721           
1 52134U 22029AY  22104.91667824 -.00111282  00000+0 -79969-3 0  9991
2 52134  53.2178  11.8140 0001331 121.4850  45.6135 15.73179644  3719
STARLINK-3729           
1 52135U 22029AZ  22104.91667824 -.00021039  00000+0 -14612-3 0  9996
2 52135  53.2177  11.8080 0001246 111.1927  58.1670 15.73159179  3712
STARLINK-3720           
1 52136U 22029BA  22104.91667824 -.00050650  00000+0 -35891-3 0  9990
2 52136  53.2178  11.8115 0001285 110.3127  57.8710 15.73182696  3710
STARLINK-3733           
1 52137U 22029BB  22104.91667824 -.00037213  00000+0 -26174-3 0  9995
2 52137  53.2178  11.8068 0001465  97.3483  72.5846 15.73213531  3714
STARLINK-3723           
1 52138U 22029BC  22104.91667824  .00158877  00000+0  11216-2 0  9994
2 52138  53.2178  11.8109 0001452 127.7442  40.7548 15.73064805  3714
STARLINK-3730           
1 52139U 22029BD  22104.91667824  .00003379  00000+0  28511-4 0  9999
2 52139  53.2168  11.4340 0001474 111.3392 239.9577 15.73178565  3717
STARLINK-3682           
1 52140U 22029BE  22104.91667824 -.00127674  00000+0 -91655-3 0  9996
2 52140  53.2179  11.8054 0001292 114.0529  56.9885 15.73265356  3711
FALCON 9 DEB            
1 52141U 22029BF  22104.73840724  .00495880  12111-3  84330-3 0  9996
2 52141  53.2144   9.4630 0006045 317.8317  42.2250 16.02026175  4246
FALCON 9 DEB            
1 52142U 22029BG  22104.73772662  .00438280  94981-4  78501-3 0  9992
2 52142  53.2144   9.4604 0005508 346.3433  13.7449 16.01155894  4240
FALCON 9 DEB            
1 52143U 22029BH  22104.46346670  .00480355  11657-3  74310-3 0  9991
2 52143  53.2091  10.5824 0003659 299.4832  60.5836 16.03644786  4206
FALCON 9 DEB            
1 52144U 22029BJ  22104.44885088  .00580978  17525-3  77119-3 0  9993
2 52144  53.2133  10.4897 0002865 282.6179  77.4535 16.06148036  4202
